{
    "links": {
        "self": "http://www.neowsapp.com/rest/v1/neo/3681005?api_key=iIulBulltgU6a56xZRHN4H3l9WmuAYTsLGpBGhQ2"
    },
    "id": "3681005",
    "neo_reference_id": "3681005",
    "name": "(2014 OO392)",
    "designation": "2014 OO392",
    "nasa_jpl_url": "http://ssd.jpl.nasa.gov/sbdb.cgi?sstr=3681005",
    "absolute_magnitude_h": 24.5,
    "estimated_diameter": {
        "kilometers": {
            "estimated_diameter_min": 0.0334622374,
            "estimated_diameter_max": 0.0748238376
        },
        "meters": {
            "estimated_diameter_min": 33.4622374455,
            "estimated_diameter_max": 74.8238376074
        },
        "miles": {
            "estimated_diameter_min": 0.0207924639,
            "estimated_diameter_max": 0.0464933628
        },
        "feet": {
            "estimated_diameter_min": 109.7842471007,
            "estimated_diameter_max": 245.4850393757
        }
    },
    "is_potentially_hazardous_asteroid": false,
    "close_approach_data": [
        {
            "close_approach_date": "2014-08-22",
            "close_approach_date_full": "2014-Aug-22 16:32",
            "epoch_date_close_approach": 1408725120000,
            "relative_velocity": {
                "kilometers_per_second": "7.6473387165",
                "kilometers_per_hour": "27530.419379266",
                "miles_per_hour": "17106.3319748556"
            },
            "miss_distance": {
                "astronomical": "0.1124127834",
                "lunar": "43.7285727426",
                "kilometers": "16816712.957411358",
                "miles": "10449420.8856504204"
            },
            "orbiting_body": "Earth"
        }
    ],
    "orbital_data": {
        "orbit_id": "3",
        "orbit_determination_date": "2017-04-06 08:39:23",
        "first_observation_date": "2014-07-30",
        "last_observation_date": "2014-08-02",
        "data_arc_in_days": 3,
        "observations_used": 7,
        "orbit_uncertainty": "9",
        "minimum_orbit_intersection": ".11024",
        "jupiter_tisserand_invariant": "3.378",
        "epoch_osculation": "2456869.5",
        "eccentricity": ".5271088235182829",
        "semi_major_axis": "2.304740084417751",
        "inclination": "7.926312701455433",
        "ascending_node_longitude": "127.4124971142047",
        "orbital_period": "1278.00148858667",
        "perihelion_distance": "1.089891250004882",
        "perihelion_argument": "219.6050579801181",
        "aphelion_distance": "3.51958891883062",
        "perihelion_time": "2456907.551221563055",
        "mean_anomaly": "349.2813585234171",
        "mean_motion": ".2816898127388887",
        "equinox": "J2000",
        "orbit_class": {
            "orbit_class_type": "AMO",
            "orbit_class_description": "Near-Earth asteroid orbits similar to that of 1221 Amor",
            "orbit_class_range": "1.017 AU < q (perihelion) < 1.3 AU"
        }
    },
    "is_sentry_object": false
}